CCSDS_OMM_VERS = 2.0
CREATION_DATE  = 
ORIGINATOR     = 

OBJECT_NAME    = SL-4 R/B
OBJECT_ID      = 2014-021B
CENTER_NAME    = EARTH
REF_FRAME      = TEME
TIME_SYSTEM    = UTC
MEAN_ELEMENT_THEORY = SGP/SGP4

EPOCH          = 2026-01-26T11:19:15.950496
MEAN_MOTION    = 15.37854322
ECCENTRICITY   = .0099069
INCLINATION    = 51.6060
RA_OF_ASC_NODE = 183.0181
ARG_OF_PERICENTER = 308.9984
MEAN_ANOMALY   = 50.2207

EPHEMERIS_TYPE = 0
CLASSIFICATION_TYPE = U
NORAD_CAT_ID   = 39679
ELEMENT_SET_NO = 999
REV_AT_EPOCH   = 64977
BSTAR          = .34085E-3
MEAN_MOTION_DOT = .14825E-3
MEAN_MOTION_DDOT = 0

CCSDS_OMM_VERS = 2.0
CREATION_DATE  = 
ORIGINATOR     = 

OBJECT_NAME    = ALOS-2
OBJECT_ID      = 2014-029A
CENTER_NAME    = EARTH
REF_FRAME      = TEME
TIME_SYSTEM    = UTC
MEAN_ELEMENT_THEORY = SGP/SGP4

EPOCH          = 2026-01-26T12:23:01.805568
MEAN_MOTION    = 14.79469815
ECCENTRICITY   = .0001483
INCLINATION    = 97.9192
RA_OF_ASC_NODE = 125.7179
ARG_OF_PERICENTER = 102.2354
MEAN_ANOMALY   = 257.9024

EPHEMERIS_TYPE = 0
CLASSIFICATION_TYPE = U
NORAD_CAT_ID   = 39766
ELEMENT_SET_NO = 999
REV_AT_EPOCH   = 63063
BSTAR          = .16674E-3
MEAN_MOTION_DOT = .1194E-4
MEAN_MOTION_DDOT = 0

CCSDS_OMM_VERS = 2.0
CREATION_DATE  = 
ORIGINATOR     = 

OBJECT_NAME    = YAOGAN-29
OBJECT_ID      = 2015-069A
CENTER_NAME    = EARTH
REF_FRAME      = TEME
TIME_SYSTEM    = UTC
MEAN_ELEMENT_THEORY = SGP/SGP4

EPOCH          = 2026-01-26T13:20:55.793184
MEAN_MOTION    = 14.82943473
ECCENTRICITY   = .000274
INCLINATION    = 98.0190
RA_OF_ASC_NODE = 54.8652
ARG_OF_PERICENTER = 107.1485
MEAN_ANOMALY   = 253.0029

EPHEMERIS_TYPE = 0
CLASSIFICATION_TYPE = U
NORAD_CAT_ID   = 41038
ELEMENT_SET_NO = 999
REV_AT_EPOCH   = 54963
BSTAR          = .13512E-3
MEAN_MOTION_DOT = .1042E-4
MEAN_MOTION_DDOT = 0

CCSDS_OMM_VERS = 2.0
CREATION_DATE  = 
ORIGINATOR     = 

OBJECT_NAME    = ASTRO-H (HITOMI)
OBJECT_ID      = 2016-012A
CENTER_NAME    = EARTH
REF_FRAME      = TEME
TIME_SYSTEM    = UTC
MEAN_ELEMENT_THEORY = SGP/SGP4

EPOCH          = 2026-01-25T23:50:23.965152
MEAN_MOTION    = 15.09682793
ECCENTRICITY   = .00099285
INCLINATION    = 30.9994
RA_OF_ASC_NODE = 272.0124
ARG_OF_PERICENTER = 264.1512
MEAN_ANOMALY   = 95.7995

EPHEMERIS_TYPE = 0
CLASSIFICATION_TYPE = U
NORAD_CAT_ID   = 41337
ELEMENT_SET_NO = 999
REV_AT_EPOCH   = 54577
BSTAR          = .2742275E-3
MEAN_MOTION_DOT = .4626E-4
MEAN_MOTION_DDOT = 0

CCSDS_OMM_VERS = 2.0
CREATION_DATE  = 
ORIGINATOR     = 

OBJECT_NAME    = HXMT (HUIYAN)
OBJECT_ID      = 2017-034A
CENTER_NAME    = EARTH
REF_FRAME      = TEME
TIME_SYSTEM    = UTC
MEAN_ELEMENT_THEORY = SGP/SGP4

EPOCH          = 2026-01-26T12:16:27.611616
MEAN_MOTION    = 15.16899957
ECCENTRICITY   = .0032725
INCLINATION    = 43.0134
RA_OF_ASC_NODE = 251.0675
ARG_OF_PERICENTER = 325.7500
MEAN_ANOMALY   = 34.1237

EPHEMERIS_TYPE = 0
CLASSIFICATION_TYPE = U
NORAD_CAT_ID   = 42758
ELEMENT_SET_NO = 999
REV_AT_EPOCH   = 47613
BSTAR          = .38079E-3
MEAN_MOTION_DOT = .751E-4
MEAN_MOTION_DDOT = 0

CCSDS_OMM_VERS = 2.0
CREATION_DATE  = 
ORIGINATOR     = 

OBJECT_NAME    = CZ-2C R/B
OBJECT_ID      = 2018-054D
CENTER_NAME    = EARTH
REF_FRAME      = TEME
TIME_SYSTEM    = UTC
MEAN_ELEMENT_THEORY = SGP/SGP4

EPOCH          = 2026-01-25T23:07:32.650176
MEAN_MOTION    = 15.87877978
ECCENTRICITY   = .00129689
INCLINATION    = 35.1310
RA_OF_ASC_NODE = 238.3712
ARG_OF_PERICENTER = 247.8566
MEAN_ANOMALY   = 112.0795

EPHEMERIS_TYPE = 0
CLASSIFICATION_TYPE = U
NORAD_CAT_ID   = 43521
ELEMENT_SET_NO = 999
REV_AT_EPOCH   = 42205
BSTAR          = .91989542E-3
MEAN_MOTION_DOT = .268633E-2
MEAN_MOTION_DDOT = 0

CCSDS_OMM_VERS = 2.0
CREATION_DATE  = 
ORIGINATOR     = 

OBJECT_NAME    = SAOCOM 1A
OBJECT_ID      = 2018-076A
CENTER_NAME    = EARTH
REF_FRAME      = TEME
TIME_SYSTEM    = UTC
MEAN_ELEMENT_THEORY = SGP/SGP4

EPOCH          = 2026-01-26T11:58:22.545120
MEAN_MOTION    = 14.82170083
ECCENTRICITY   = .000154
INCLINATION    = 97.8864
RA_OF_ASC_NODE = 215.2713
ARG_OF_PERICENTER = 83.7117
MEAN_ANOMALY   = 276.4272

EPHEMERIS_TYPE = 0
CLASSIFICATION_TYPE = U
NORAD_CAT_ID   = 43641
ELEMENT_SET_NO = 999
REV_AT_EPOCH   = 39511
BSTAR          = .14478E-3
MEAN_MOTION_DOT = .1101E-4
MEAN_MOTION_DDOT = 0

CCSDS_OMM_VERS = 2.0
CREATION_DATE  = 
ORIGINATOR     = 

OBJECT_NAME    = H-2A R/B
OBJECT_ID      = 2018-084L
CENTER_NAME    = EARTH
REF_FRAME      = TEME
TIME_SYSTEM    = UTC
MEAN_ELEMENT_THEORY = SGP/SGP4

EPOCH          = 2026-01-26T12:13:29.771040
MEAN_MOTION    = 15.39409660
ECCENTRICITY   = .0026028
INCLINATION    = 98.8767
RA_OF_ASC_NODE = 234.9412
ARG_OF_PERICENTER = 168.2409
MEAN_ANOMALY   = 191.9445

EPHEMERIS_TYPE = 0
CLASSIFICATION_TYPE = U
NORAD_CAT_ID   = 43682
ELEMENT_SET_NO = 999
REV_AT_EPOCH   = 39928
BSTAR          = .68882E-3
MEAN_MOTION_DOT = .27231E-3
MEAN_MOTION_DDOT = 0

CCSDS_OMM_VERS = 2.0
CREATION_DATE  = 
ORIGINATOR     = 

OBJECT_NAME    = SAOCOM 1B
OBJECT_ID      = 2020-059A
CENTER_NAME    = EARTH
REF_FRAME      = TEME
TIME_SYSTEM    = UTC
MEAN_ELEMENT_THEORY = SGP/SGP4

EPOCH          = 2026-01-26T12:43:22.476000
MEAN_MOTION    = 14.82144046
ECCENTRICITY   = .0001318
INCLINATION    = 97.8859
RA_OF_ASC_NODE = 214.4007
ARG_OF_PERICENTER = 87.1400
MEAN_ANOMALY   = 272.9964

EPHEMERIS_TYPE = 0
CLASSIFICATION_TYPE = U
NORAD_CAT_ID   = 46265
ELEMENT_SET_NO = 999
REV_AT_EPOCH   = 29250
BSTAR          = .96063E-4
MEAN_MOTION_DOT = .712E-5
MEAN_MOTION_DDOT = 0

CCSDS_OMM_VERS = 2.0
CREATION_DATE  = 
ORIGINATOR     = 

OBJECT_NAME    = CSS (TIANHE)
OBJECT_ID      = 2021-035A
CENTER_NAME    = EARTH
REF_FRAME      = TEME
TIME_SYSTEM    = UTC
MEAN_ELEMENT_THEORY = SGP/SGP4

EPOCH          = 2026-01-26T11:03:46.572480
MEAN_MOTION    = 15.61119658
ECCENTRICITY   = .0009754
INCLINATION    = 41.4668
RA_OF_ASC_NODE = 104.8235
ARG_OF_PERICENTER = 6.6602
MEAN_ANOMALY   = 353.4365

EPHEMERIS_TYPE = 0
CLASSIFICATION_TYPE = U
NORAD_CAT_ID   = 48274
ELEMENT_SET_NO = 999
REV_AT_EPOCH   = 27101
BSTAR          = .31956E-3
MEAN_MOTION_DOT = .2756E-3
MEAN_MOTION_DDOT = 0

CCSDS_OMM_VERS = 2.0
CREATION_DATE  = 
ORIGINATOR     = 

OBJECT_NAME    = COSMOS 2550
OBJECT_ID      = 2021-056A
CENTER_NAME    = EARTH
REF_FRAME      = TEME
TIME_SYSTEM    = UTC
MEAN_ELEMENT_THEORY = SGP/SGP4

EPOCH          = 2026-01-26T03:10:39.828288
MEAN_MOTION    = 15.33840202
ECCENTRICITY   = .00083094
INCLINATION    = 67.1441
RA_OF_ASC_NODE = 169.6578
ARG_OF_PERICENTER = 269.8947
MEAN_ANOMALY   = 90.1255

EPHEMERIS_TYPE = 0
CLASSIFICATION_TYPE = U
NORAD_CAT_ID   = 48865
ELEMENT_SET_NO = 999
REV_AT_EPOCH   = 25693
BSTAR          = .322698E-6
MEAN_MOTION_DOT = -.181E-5
MEAN_MOTION_DDOT = 0

CCSDS_OMM_VERS = 2.0
CREATION_DATE  = 
ORIGINATOR     = 

OBJECT_NAME    = CZ-2C R/B
OBJECT_ID      = 2022-058K
CENTER_NAME    = EARTH
REF_FRAME      = TEME
TIME_SYSTEM    = UTC
MEAN_ELEMENT_THEORY = SGP/SGP4

EPOCH          = 2026-01-26T11:43:27.967296
MEAN_MOTION    = 15.51286946
ECCENTRICITY   = .0042525
INCLINATION    = 50.1884
RA_OF_ASC_NODE = 174.8846
ARG_OF_PERICENTER = 22.6090
MEAN_ANOMALY   = 337.6741

EPHEMERIS_TYPE = 0
CLASSIFICATION_TYPE = U
NORAD_CAT_ID   = 52794
ELEMENT_SET_NO = 999
REV_AT_EPOCH   = 20357
BSTAR          = .62095E-3
MEAN_MOTION_DOT = .38269E-3
MEAN_MOTION_DDOT = 0

