SL-4 R/B                
1 39679U 14021B   26026.47171239  .00014825  00000+0  34085-3 0  9994
2 39679  51.6060 183.0181 0099069 308.9984  50.2207 15.37854322649779
ALOS-2                  
1 39766U 14029A   26026.51599312  .00001194  00000+0  16674-3 0  9999
2 39766  97.9192 125.7179 0001483 102.2354 257.9024 14.79469815630636
YAOGAN-29               
1 41038U 15069A   26026.55620131  .00001042  00000+0  13512-3 0  9997
2 41038  98.0190  54.8652 0002740 107.1485 253.0029 14.82943473549637
ASTRO-H (HITOMI)        
1 41337U 16012A   26025.99333293  .00004626  00000+0  27423-3 0  9992
2 41337  30.9994 272.0124 0009928 264.1512  95.7995 15.09682793545773
HXMT (HUIYAN)           
1 42758U 17034A   26026.51143069  .00007510  00000+0  38079-3 0  9998
2 42758  43.0134 251.0675 0032725 325.7500  34.1237 15.16899957476131
CZ-2C R/B               
1 43521U 18054D   26025.96357234  .00268633  00000+0  91990-3 0  9995
2 43521  35.1310 238.3712 0012968 247.8566 112.0795 15.87877978422055
SAOCOM 1A               
1 43641U 18076A   26026.49887205  .00001101  00000+0  14478-3 0  9998
2 43641  97.8864 215.2713 0001540  83.7117 276.4272 14.82170083395113
H-2A R/B                
1 43682U 18084L   26026.50937235  .00027231  00000+0  68882-3 0  9993
2 43682  98.8767 234.9412 0026028 168.2409 191.9445 15.39409660399280
SAOCOM 1B               
1 46265U 20059A   26026.53012125  .00000712  00000+0  96063-4 0  9991
2 46265  97.8859 214.4007 0001318  87.1400 272.9964 14.82144046292503
CSS (TIANHE)            
1 48274U 21035A   26026.46095570  .00027560  00000+0  31956-3 0  9994
2 48274  41.4668 104.8235 0009754   6.6602 353.4365 15.61119658271017
COSMOS 2550             
1 48865U 21056A   26026.13240542 -.00000181  00000+0  32270-6 0  9992
2 48865  67.1441 169.6578 0008309 269.8947  90.1255 15.33840202256938
CZ-2C R/B               
1 52794U 22058K   26026.48851814  .00038269  00000+0  62095-3 0  9991
2 52794  50.1884 174.8846 0042525  22.6090 337.6741 15.51286946203575
